[{"OBJECT_NAME":"FLOCK 4H-8","OBJECT_ID":"2025-276AX","EPOCH":"2026-03-09T17:55:59.813184","MEAN_MOTION":15.18818765,"ECCENTRICITY":0.00036012,"INCLINATION":97.4295,"RA_OF_ASC_NODE":144.0384,"ARG_OF_PERICENTER":24.9945,"MEAN_ANOMALY":335.1463,"EPHEMERIS_TYPE":0,"CLASSIFICATION_TYPE":"U","NORAD_CAT_ID":66711,"ELEMENT_SET_NO":999,"REV_AT_EPOCH":1532,"BSTAR":0.00043027656,"MEAN_MOTION_DOT":8.895e-5,"MEAN_MOTION_DDOT":0},{"OBJECT_NAME":"FENGYUN 1C DEB","OBJECT_ID":"1999-025BZN","EPOCH":"2026-03-03T04:13:23.729376","MEAN_MOTION":14.87557859,"ECCENTRICITY":0.01425437,"INCLINATION":98.383,"RA_OF_ASC_NODE":189.7124,"ARG_OF_PERICENTER":136.8849,"MEAN_ANOMALY":224.3635,"EPHEMERIS_TYPE":0,"CLASSIFICATION_TYPE":"U","NORAD_CAT_ID":31608,"ELEMENT_SET_NO":999,"REV_AT_EPOCH":99828,"BSTAR":0.0013394908,"MEAN_MOTION_DOT":0.00014627,"MEAN_MOTION_DDOT":0}]
